{"type": "FeatureCollection", "features": [ {"type": "Feature", "properties": {"norad_id": 57401, "name": "TIANMU-1 09", "group": "weather", "lat": -40.73095790106812, "lon": 56.74483844903964, "alt_km": 487.0279886633507, "timestamp": "2025-12-27T14:26:30.159430+00:00", "meta": {"OBJECT_NAME": "TIANMU-1 09", "OBJECT_ID": "2023-101C", "EPOCH": "2025-12-27T06:45:51.653376", "MEAN_MOTION": 15.2829939, "ECCENTRICITY": 0.00060531, "INCLINATION": 97.2803, "RA_OF_ASC_NODE": 50.1121, "ARG_OF_PERICENTER": 43.5731, "MEAN_ANOMALY": 316.5987, "EPHEMERIS_TYPE": 0, "CLASSIFICATION_TYPE": "U", "NORAD_CAT_ID": 57401, "ELEMENT_SET_NO": 999, "REV_AT_EPOCH": 13537, "BSTAR": 0.00031064907, "MEAN_MOTION_DOT": 8.496e-05, "MEAN_MOTION_DDOT": 0}, "tle": {"line1": "1 57401U 23101C   25361.28184784  .00008496  00000+0  31065-3 0  9997", "line2": "2 57401  97.2803  50.1121 0006053  43.5731 316.5987 15.28299390135371"}}, "geometry": {"type": "Point", "coordinates": [56.74483844903964, -40.73095790106812]}}, {"type": "Feature", "properties": {"norad_id": 57402, "name": "TIANMU-1 10", "group": "weather", "lat": 48.78098515142835, "lon": -120.30885985891662, "alt_km": 476.66542026851585, "timestamp": "2025-12-27T14:26:30.159446+00:00", "meta": {"OBJECT_NAME": "TIANMU-1 10", "OBJECT_ID": "2023-101D", "EPOCH": "2025-12-27T07:35:13.986240", "MEAN_MOTION": 15.28291644, "ECCENTRICITY": 0.00077574, "INCLINATION": 97.2883, "RA_OF_ASC_NODE": 51.0108, "ARG_OF_PERICENTER": 40.548, "MEAN_ANOMALY": 319.6337, "EPHEMERIS_TYPE": 0, "CLASSIFICATION_TYPE": "U", "NORAD_CAT_ID": 57402, "ELEMENT_SET_NO": 999, "REV_AT_EPOCH": 13537, "BSTAR": 0.00029565158, "MEAN_MOTION_DOT": 8.083e-05, "MEAN_MOTION_DDOT": 0}, "tle": {"line1": "1 57402U 23101D   25361.31613410  .00008083  00000+0  29565-3 0  9999", "line2": "2 57402  97.2883  51.0108 0007757  40.5480 319.6337 15.28291644135372"}}, "geometry": {"type": "Point", "coordinates": [-120.30885985891662, 48.78098515142835]}}, {"type": "Feature", "properties": {"norad_id": 57490, "name": "FENGYUN 3F", "group": "weather", "lat": 6.211837383486342, "lon": 68.69837531277696, "alt_km": 827.9916138273056, "timestamp": "2025-12-27T14:26:30.159458+00:00", "meta": {"OBJECT_NAME": "FENGYUN 3F", "OBJECT_ID": "2023-111A", "EPOCH": "2025-12-27T07:38:50.390592", "MEAN_MOTION": 14.1989742, "ECCENTRICITY": 8.71e-05, "INCLINATION": 98.7064, "RA_OF_ASC_NODE": 69.3756, "ARG_OF_PERICENTER": 118.0284, "MEAN_ANOMALY": 242.0981, "EPHEMERIS_TYPE": 0, "CLASSIFICATION_TYPE": "U", "NORAD_CAT_ID": 57490, "ELEMENT_SET_NO": 999, "REV_AT_EPOCH": 12447, "BSTAR": 5.8465385e-05, "MEAN_MOTION_DOT": 8e-07, "MEAN_MOTION_DDOT": 0}, "tle": {"line1": "1 57490U 23111A   25361.31863878  .00000080  00000+0  58465-4 0  9993", "line2": "2 57490  98.7064  69.3756 0000871 118.0284 242.0981 14.19897420124476"}}, "geometry": {"type": "Point", "coordinates": [68.69837531277696, 6.211837383486342]}}, {"type": "Feature", "properties": {"norad_id": 58584, "name": "ARKTIKA-M 2", "group": "weather", "lat": 58.7306469919776, "lon": -63.00476896631467, "alt_km": 33769.35195514291, "timestamp": "2025-12-27T14:26:30.159473+00:00", "meta": {"OBJECT_NAME": "ARKTIKA-M 2", "OBJECT_ID": "2023-198A", "EPOCH": "2025-12-26T18:51:48.111264", "MEAN_MOTION": 2.00602169, "ECCENTRICITY": 0.68661981, "INCLINATION": 63.2254, "RA_OF_ASC_NODE": 173.3631, "ARG_OF_PERICENTER": 268.0478, "MEAN_ANOMALY": 18.8426, "EPHEMERIS_TYPE": 0, "CLASSIFICATION_TYPE": "U", "NORAD_CAT_ID": 58584, "ELEMENT_SET_NO": 999, "REV_AT_EPOCH": 1486, "BSTAR": 0, "MEAN_MOTION_DOT": 2.36e-06, "MEAN_MOTION_DDOT": 0}, "tle": {"line1": "1 58584U 23198A   25360.78597351  .00000236  00000+0  00000+0 0  9993", "line2": "2 58584  63.2254 173.3631 6866198 268.0478  18.8426  2.00602169 14861"}}, "geometry": {"type": "Point", "coordinates": [-63.00476896631467, 58.7306469919776]}}, {"type": "Feature", "properties": {"norad_id": 58645, "name": "TIANMU-1 11", "group": "weather", "lat": 56.27443574284846, "lon": -147.87112454864283, "alt_km": 489.0115643055333, "timestamp": "2025-12-27T14:26:30.159485+00:00", "meta": {"OBJECT_NAME": "TIANMU-1 11", "OBJECT_ID": "2023-205A", "EPOCH": "2025-12-27T07:36:13.183200", "MEAN_MOTION": 15.24777206, "ECCENTRICITY": 0.00076051, "INCLINATION": 97.3601, "RA_OF_ASC_NODE": 20.6842, "ARG_OF_PERICENTER": 247.77, "MEAN_ANOMALY": 112.2732, "EPHEMERIS_TYPE": 0, "CLASSIFICATION_TYPE": "U", "NORAD_CAT_ID": 58645, "ELEMENT_SET_NO": 999, "REV_AT_EPOCH": 11131, "BSTAR": 0.00026717465, "MEAN_MOTION_DOT": 6.557e-05, "MEAN_MOTION_DDOT": 0}, "tle": {"line1": "1 58645U 23205A   25361.31681925  .00006557  00000+0  26717-3 0  9990", "line2": "2 58645  97.3601  20.6842 0007605 247.7700 112.2732 15.24777206111319"}}, "geometry": {"type": "Point", "coordinates": [-147.87112454864283, 56.27443574284846]}}, {"type": "Feature", "properties": {"norad_id": 58646, "name": "TIANMU-1 12", "group": "weather", "lat": -30.671769623437818, "lon": 25.160861358238147, "alt_km": 498.9258764430215, "timestamp": "2025-12-27T14:26:30.159517+00:00", "meta": {"OBJECT_NAME": "TIANMU-1 12", "OBJECT_ID": "2023-205B", "EPOCH": "2025-12-27T06:42:05.929920", "MEAN_MOTION": 15.24664129, "ECCENTRICITY": 0.00061457, "INCLINATION": 97.3589, "RA_OF_ASC_NODE": 20.448, "ARG_OF_PERICENTER": 225.6683, "MEAN_ANOMALY": 134.4052, "EPHEMERIS_TYPE": 0, "CLASSIFICATION_TYPE": "U", "NORAD_CAT_ID": 58646, "ELEMENT_SET_NO": 999, "REV_AT_EPOCH": 11129, "BSTAR": 0.00030048901, "MEAN_MOTION_DOT": 7.357e-05, "MEAN_MOTION_DDOT": 0}, "tle": {"line1": "1 58646U 23205B   25361.27923530  .00007357  00000+0  30049-3 0  9999", "line2": "2 58646  97.3589  20.4480 0006145 225.6683 134.4052 15.24664129111291"}}, "geometry": {"type": "Point", "coordinates": [25.160861358238147, -30.671769623437818]}}, {"type": "Feature", "properties": {"norad_id": 58647, "name": "TIANMU-1 13", "group": "weather", "lat": 32.27102266309161, "lon": -154.34499956435724, "alt_km": 487.20440449156195, "timestamp": "2025-12-27T14:26:30.159534+00:00", "meta": {"OBJECT_NAME": "TIANMU-1 13", "OBJECT_ID": "2023-205C", "EPOCH": "2025-12-27T07:29:48.852672", "MEAN_MOTION": 15.2470828, "ECCENTRICITY": 0.00068586, "INCLINATION": 97.3617, "RA_OF_ASC_NODE": 20.6877, "ARG_OF_PERICENTER": 204.3514, "MEAN_ANOMALY": 155.74, "EPHEMERIS_TYPE": 0, "CLASSIFICATION_TYPE": "U", "NORAD_CAT_ID": 58647, "ELEMENT_SET_NO": 999, "REV_AT_EPOCH": 11129, "BSTAR": 0.00027256054, "MEAN_MOTION_DOT": 6.676e-05, "MEAN_MOTION_DDOT": 0}, "tle": {"line1": "1 58647U 23205C   25361.31237098  .00006676  00000+0  27256-3 0  9991", "line2": "2 58647  97.3617  20.6877 0006858 204.3514 155.7400 15.24708280111294"}}, "geometry": {"type": "Point", "coordinates": [-154.34499956435724, 32.27102266309161]}}, {"type": "Feature", "properties": {"norad_id": 58648, "name": "TIANMU-1 14", "group": "weather", "lat": -56.90960693831883, "lon": -171.12552583609258, "alt_km": 494.25541570959103, "timestamp": "2025-12-27T14:26:30.159544+00:00", "meta": {"OBJECT_NAME": "TIANMU-1 14", "OBJECT_ID": "2023-205D", "EPOCH": "2025-12-27T07:06:08.600832", "MEAN_MOTION": 15.24691341, "ECCENTRICITY": 0.00075332, "INCLINATION": 97.3549, "RA_OF_ASC_NODE": 20.0068, "ARG_OF_PERICENTER": 210.5119, "MEAN_ANOMALY": 149.5681, "EPHEMERIS_TYPE": 0, "CLASSIFICATION_TYPE": "U", "NORAD_CAT_ID": 58648, "ELEMENT_SET_NO": 999, "REV_AT_EPOCH": 11129, "BSTAR": 0.00030023867, "MEAN_MOTION_DOT": 7.359e-05, "MEAN_MOTION_DDOT": 0}, "tle": {"line1": "1 58648U 23205D   25361.29593288  .00007359  00000+0  30024-3 0  9991", "line2": "2 58648  97.3549  20.0068 0007533 210.5119 149.5681 15.24691341111297"}}, "geometry": {"type": "Point", "coordinates": [-171.12552583609258, -56.90960693831883]}}, {"type": "Feature", "properties": {"norad_id": 58660, "name": "TIANMU-1 19", "group": "weather", "lat": -46.206936346071835, "lon": 120.44372428291248, "alt_km": 490.0447671404436, "timestamp": "2025-12-27T14:26:30.159555+00:00", "meta": {"OBJECT_NAME": "TIANMU-1 19", "OBJECT_ID": "2023-208A", "EPOCH": "2025-12-27T06:47:17.266272", "MEAN_MOTION": 15.28119924, "ECCENTRICITY": 0.00049501, "INCLINATION": 97.4383, "RA_OF_ASC_NODE": 112.2932, "ARG_OF_PERICENTER": 192.4715, "MEAN_ANOMALY": 167.6403, "EPHEMERIS_TYPE": 0, "CLASSIFICATION_TYPE": "U", "NORAD_CAT_ID": 58660, "ELEMENT_SET_NO": 999, "REV_AT_EPOCH": 11104, "BSTAR": 0.00038949856, "MEAN_MOTION_DOT": 0.00010611, "MEAN_MOTION_DDOT": 0}, "tle": {"line1": "1 58660U 23208A   25361.28283873  .00010611  00000+0  38950-3 0  9994", "line2": "2 58660  97.4383 112.2932 0004950 192.4715 167.6403 15.28119924111044"}}, "geometry": {"type": "Point", "coordinates": [120.44372428291248, -46.206936346071835]}}, {"type": "Feature", "properties": {"norad_id": 58661, "name": "TIANMU-1 20", "group": "weather", "lat": 82.48556313224586, "lon": 14.808941574936682, "alt_km": 472.34938588072964, "timestamp": "2025-12-27T14:26:30.159565+00:00", "meta": {"OBJECT_NAME": "TIANMU-1 20", "OBJECT_ID": "2023-208B", "EPOCH": "2025-12-27T06:11:34.059840", "MEAN_MOTION": 15.29310085, "ECCENTRICITY": 0.00069571, "INCLINATION": 97.4321, "RA_OF_ASC_NODE": 112.7305, "ARG_OF_PERICENTER": 206.6493, "MEAN_ANOMALY": 153.4391, "EPHEMERIS_TYPE": 0, "CLASSIFICATION_TYPE": "U", "NORAD_CAT_ID": 58661, "ELEMENT_SET_NO": 999, "REV_AT_EPOCH": 11111, "BSTAR": 0.00039251011, "MEAN_MOTION_DOT": 0.00011096, "MEAN_MOTION_DDOT": 0}, "tle": {"line1": "1 58661U 23208B   25361.25803310  .00011096  00000+0  39251-3 0  9999", "line2": "2 58661  97.4321 112.7305 0006957 206.6493 153.4391 15.29310085111115"}}, "geometry": {"type": "Point", "coordinates": [14.808941574936682, 82.48556313224586]}}]}